#dP2023  5 10  0  0  0.00000000      96 __u+U IGS14 FIT  IAC
## 2261 259200.00000000   900.00000000 60074 0.0000000000000
+  118   C06C07C08C09C10C11C12C13C14C16C19C20C21C22C23C24C25
+        C26C27C28C29C30C32C33C34C35C36C37C38C39C40C41C42C43
+        C44C45C46E02E04E05E07E08E09E10E11E12E13E14E15E18E19
+        E21E24E25E26E27E30E31E33E34E36G01G02G03G04G05G06G07
+        G08G09G10G11G12G13G14G15G16G17G18G19G20G21G22G23G24
+        G25G26G27G28G29G30G31G32J02J03J04R01R02R03R04R05R07
+        R08R09R11R12R13R14R15R16R17R18R19R20R21R22R24R25  0
++         7  7  7  7  7  7  7  7  8  7  6  6  6  6  6  6  6
++         5  6  6  6  6  6  6  6  6  6  6  6  6  6  6  6  6
++         6  6  6  4  4  4  4  5  4  4  4  4  4  5  5  4  5
++         4  4  4  4  4  4  4  4  4  4  4  3  4  3  3  4  3
++         3  3  3  3  4  3  4  4  3  4  3  4  3  3  4  3  4
++         4  4  3  4  3  3  3  4  9  9 10  8  7  7  7  7  6
++         7  6  7  7  7  6  7  7  7  7  8  8  6  6  7  7  0
%c M  cc GPS ccc cccc cccc cccc cccc ccccc ccccc ccccc ccccc
%c cc cc ccc ccc cccc cccc cccc cccc ccccc ccccc ccccc ccccc
%f  1.2500000  1.025000000  0.00000000000  0.000000000000000
%f  0.0000000  0.000000000  0.00000000000  0.000000000000000
%i    0    0    0    0      0      0      0      0         0
%i    0    0    0    0      0      0      0      0         0
/* INFORMATION & ANALYSIS CENTER (IAC)            FINAL DATA
/* S/V CLOCKS ARE ALIGNED TO GNSS TIME                      
/* G:C1WC2W R:C1PC2P E:C1XC5X C:C2IC6I J:C1CC2S             
/* PCV:IGS20_2247 OL/AL:FES2004  NONE     YN ORB:CoN CLK:CoN
*  2023 05 10 18 15  0.00000000
PC06  -3028.597379  26088.875617  33075.619295   -192.523144
PC07 -18406.038587  33143.015625 -18605.303163      1.159742
PC08  -5695.605918  40113.756043 -11352.078120    488.363416
PC09   6713.683492  29931.870797  29590.062552    669.298097
PC10 -10635.276091  33110.804586 -23888.481172    -54.915114
PC11 -10764.084846 -17483.686989  18967.747790    612.015134
PC12   9611.545824 -12681.690541  22953.768217    629.780779
PC13   -733.457513  41799.035563  -4189.158579    271.666374
PC14   -841.708143 -18361.027428 -20957.777176    240.780108
PC16  -6594.723774  23978.405953  34319.119379     82.756568
PC19   9989.962966  12142.119007  23084.833366   -908.777092
PC20  -6995.708063  21256.722789  16713.212830    576.076211
PC21  21150.311773 -18176.853277    339.040113   -913.874329
PC22  22094.060670  -4417.123871  16447.570627   -494.749240
PC23 -16885.433339  -6268.671894  21319.790743   -925.212900
PC24    616.043533 -26750.591221  -7973.280486    -70.177119
PC25 -12627.233168 -22637.108227  10353.704536    123.837172
PC26  11323.705021 -15727.878642 -20104.284581   -118.402052
PC27 -17848.412373   8293.006263 -19802.902039    138.218011
PC28 -26680.822563  -4323.213931  -6945.387867    102.184215
PC29  20403.357991  14962.090110 -11787.582325    118.583442
PC30   1021.832191  16680.308343 -22364.046935     -0.155835
PC32 -21030.375940  18355.531566   -354.774383   -564.486259
PC33 -10030.050132 -12123.377352 -23037.622894   -880.269711
PC34  -2450.996595 -16946.789333  22013.970212    167.749101
PC35  26950.090238   3896.139867   6187.419735    630.100138
PC36  11722.743800  23378.657408  -9705.062358   -449.680262
PC37 -12289.093808  14243.218777  20618.283853   -784.654965
PC38 -10334.846098  36425.495378 -18386.290721     77.462870
PC39 -11437.538579  21265.917178  34619.665347     -2.884493
PC40 -25298.550870  28168.148104 -18825.625970    -22.808713
PC41 -21879.643733   3959.057089 -16813.818687   -948.272368
PC42   8193.259731 -21526.130747 -15686.569950   -697.973310
PC43 -19709.132623 -15339.834053  12411.342447     20.768666
PC44  17780.584902  -8899.925657  19575.704427    102.464842
PC45  16762.497012   5751.073418 -21551.534326    -95.888025
PC46    481.371679  27098.997593   6565.407846    -53.070266
PE02   1751.043896 -27121.998689  11738.695974     37.350988
PE04  22705.831962   8369.869256  17057.844820   -119.355650
PE05  18442.162593 -15394.665388 -17281.033020    -68.721090
PE07 -29187.748183   4961.875591    129.482217    -44.057689
PE08 -22509.330224  -8382.767681 -17299.335646    -80.936880
PE09  29187.711409  -4872.686913     70.331351    -10.077975
PE10  22521.154193  12194.830073  14830.668320   -532.741730
PE11  19967.847882   2107.129710  21740.355051   1882.635698
PE12  21345.972681  19550.575203   6240.666137   -533.092277
PE13 -20231.827738  -2863.201420 -21413.696621    -19.123729
PE14  -5731.046219 -15479.122129  18876.125245    221.353894
PE15 -21260.438093 -19714.450409  -5930.137683    -20.787358
PE18  -4212.753183  20075.212028 -23676.221772     48.454510
PE19    187.614127  17022.984956  24228.959120  -2565.282624
PE21 -13920.054372  25458.950538   5847.060770   -528.330696
PE24  18849.785459  -8112.369989 -21355.351701    -91.406549
PE25  14091.329616 -25291.478543  -6167.389516   -604.833860
PE26  -6859.558817  16134.603691 -23852.018892    100.289860
PE27 -18804.268874   8971.909289  21022.287376    -46.162720
PE30 -12234.065812 -13246.796924  23464.394070   -162.098098
PE31  12561.459759  12609.309773 -23646.574010   -523.453744
PE33   9733.627206  24795.556179 -12925.855752   -444.647801
PE34  -9903.437421 -24789.070680  12781.662003    -44.710245
PE36   7387.184670 -15423.944533  24153.753806    -54.111713
PG01  19497.329083  10817.577080  14365.085373    186.358086
PG02   4540.112754  21009.037243 -15316.672413   -597.566750
PG03  15720.375369   -449.516567  21253.193428   -307.107128
PG04  26283.390381    633.700683   4195.697721     38.050875
PG05  -8345.933473 -16174.632093 -19475.322001   -126.681137
PG06   -794.356671 -20178.224184  17259.707848    588.117108
PG07  15371.278008  -4313.514463 -20841.944718    181.483339
PG08  20755.374304   7598.692552 -15081.809909   -121.773407
PG09  24746.423171  -7781.081453  -5876.480247   -161.792189
PG10 -10988.214783  23954.993479  -1182.954840    -36.368935
PG11 -11876.729030 -23322.352220   4652.195229   -192.051659
PG12 -14882.987638  -3444.263906  21439.393076   -374.382901
PG13 -13703.864529 -13145.615986 -18829.617891    518.038331
PG14  13547.002118 -22388.773781  -4044.222444     52.389758
PG15 -21705.711793  -5631.437208 -14889.365333     38.321410
PG16   4170.139016  18964.597703 -18216.300225   -502.155112
PG17  14550.394014 -13304.481606  18276.451653    714.280846
PG18 -12721.662593   7868.437794 -21952.570363   -260.677198
PG19   5129.645449 -14590.418198  21324.042793    315.094173
PG20  -3765.327164 -23161.994007 -12595.548479    434.314559
PG21  20867.394881  15847.003355   7111.056093    153.889169
PG22  -1222.967852  15415.638230  22038.214843    479.039971
PG23 -15888.893155  16996.421188 -12663.612165     23.134626
PG24 -21220.945450 -12814.543922   9728.959323   -183.796597
PG25 -17241.657970   9288.098138  17504.596325    441.858387
PG26  -2914.684804  25176.903075  -7448.222782    240.955006
PG27  10172.990787  13279.161509 -20972.288286     40.353604
PG28   -434.136779  19472.439907  18036.007398     76.242604
PG29 -26223.590124   3311.299120  -3120.563569   -598.920146
PG30   7165.237024 -15409.714231 -20240.517728   -517.935961
PG31   7407.046329  22966.671462  10418.864056   -215.831306
PG32 -11063.542072  14944.202155  19072.353618   -473.215191
PJ02 -31589.789174  26630.575018  13778.660310      0.074309
PJ03 -25005.999822  17257.568227 -24622.074513      3.868957
PJ04 -26521.450796  32899.551872   3012.719793     94.468466
PR01  -9895.554722  15977.339845  17263.533079     57.244410
PR02   7741.970045   7978.167238  23011.340216    -22.857848
PR03  20449.951518  -4005.290500  14801.234183     77.576716
PR04  21676.823529 -13382.838807  -1356.614458    186.656255
PR05  11230.725684 -15555.159868 -16804.102208    112.340042
PR07 -20741.813558   4567.213994 -14047.071709     55.630012
PR08 -21473.257377  13642.378551   1717.895463    -70.706864
PR09  -7217.596196 -20736.652860  12931.697194    119.424588
PR11  -9108.741439  13043.463952  19954.541505    -53.079384
PR12  -1683.035871  25051.144667   4487.496680     27.153052
PR13   6104.117084  22019.369965 -11352.611507    -34.891100
PR14  11026.292934   4773.474305 -22491.986562     24.660054
PR15   8995.137122 -14115.580836 -19227.412253     89.397377
PR16   1594.868364 -24984.792225  -4785.273791     14.411763
PR17  22622.123490   8819.825428   7763.803569    628.780837
PR18  15135.093344  -1839.490164  20475.620131     80.848421
PR19   1509.652080 -11059.489419  22929.309197   -232.121806
PR20 -16734.809575 -16010.733478  10640.063579    -92.636894
PR21 -22356.307037  -8116.659760  -9253.276186     -6.448330
PR22 -14649.624391   2316.779950 -20726.178004     81.804053
PR24  17593.934074  15550.186316  -9943.857457    169.168046
PR25 -22282.273843  -9882.976140  -7544.845689     60.805020
EOF
